[{"OBJECT_NAME":"SL-14 R/B","OBJECT_ID":"1986-006B","EPOCH":"2026-03-25T22:35:38.342400","MEAN_MOTION":14.86838959,"ECCENTRICITY":0.0075588,"INCLINATION":82.5246,"RA_OF_ASC_NODE":244.4375,"ARG_OF_PERICENTER":217.9602,"MEAN_ANOMALY":141.6275,"EPHEMERIS_TYPE":0,"CLASSIFICATION_TYPE":"U","NORAD_CAT_ID":16496,"ELEMENT_SET_NO":999,"REV_AT_EPOCH":15162,"BSTAR":8.7827e-5,"MEAN_MOTION_DOT":8.51e-6,"MEAN_MOTION_DDOT":0},{"OBJECT_NAME":"COSMOS 1743","OBJECT_ID":"1986-034A","EPOCH":"2026-03-26T04:48:05.100192","MEAN_MOTION":15.59875785,"ECCENTRICITY":0.00037257,"INCLINATION":82.5305,"RA_OF_ASC_NODE":56.4844,"ARG_OF_PERICENTER":179.1804,"MEAN_ANOMALY":180.946,"EPHEMERIS_TYPE":0,"CLASSIFICATION_TYPE":"U","NORAD_CAT_ID":16719,"ELEMENT_SET_NO":999,"REV_AT_EPOCH":18282,"BSTAR":0.00052562654,"MEAN_MOTION_DOT":0.00042433,"MEAN_MOTION_DDOT":0},{"OBJECT_NAME":"SL-14 R/B","OBJECT_ID":"1986-046B","EPOCH":"2026-03-26T07:25:18.197760","MEAN_MOTION":14.85605849,"ECCENTRICITY":0.00233333,"INCLINATION":82.4798,"RA_OF_ASC_NODE":64.4738,"ARG_OF_PERICENTER":169.2548,"MEAN_ANOMALY":190.9172,"EPHEMERIS_TYPE":0,"CLASSIFICATION_TYPE":"U","NORAD_CAT_ID":16792,"ELEMENT_SET_NO":999,"REV_AT_EPOCH":12887,"BSTAR":5.4268279e-5,"MEAN_MOTION_DOT":4.96e-6,"MEAN_MOTION_DDOT":0},{"OBJECT_NAME":"SL-14 R/B","OBJECT_ID":"1986-055B","EPOCH":"2026-03-26T02:25:17.824800","MEAN_MOTION":14.85656608,"ECCENTRICITY":0.00173142,"INCLINATION":82.5173,"RA_OF_ASC_NODE":111.2453,"ARG_OF_PERICENTER":278.6402,"MEAN_ANOMALY":136.0123,"EPHEMERIS_TYPE":0,"CLASSIFICATION_TYPE":"U","NORAD_CAT_ID":16882,"ELEMENT_SET_NO":999,"REV_AT_EPOCH":12180,"BSTAR":4.6406651e-5,"MEAN_MOTION_DOT":4.27e-6,"MEAN_MOTION_DDOT":0},{"OBJECT_NAME":"AJISAI (EGS)","OBJECT_ID":"1986-061A","EPOCH":"2026-03-26T06:38:50.601984","MEAN_MOTION":12.44515641,"ECCENTRICITY":0.00113294,"INCLINATION":50.0107,"RA_OF_ASC_NODE":42.3401,"ARG_OF_PERICENTER":329.75,"MEAN_ANOMALY":181.4098,"EPHEMERIS_TYPE":0,"CLASSIFICATION_TYPE":"U","NORAD_CAT_ID":16908,"ELEMENT_SET_NO":999,"REV_AT_EPOCH":47006,"BSTAR":5.726046e-6,"MEAN_MOTION_DOT":-9.7e-7,"MEAN_MOTION_DDOT":0},{"OBJECT_NAME":"SL-14 R/B","OBJECT_ID":"1987-024B","EPOCH":"2026-03-26T01:36:51.147360","MEAN_MOTION":14.86147057,"ECCENTRICITY":0.0017562,"INCLINATION":82.525,"RA_OF_ASC_NODE":77.3656,"ARG_OF_PERICENTER":201.8649,"MEAN_ANOMALY":158.1821,"EPHEMERIS_TYPE":0,"CLASSIFICATION_TYPE":"U","NORAD_CAT_ID":17567,"ELEMENT_SET_NO":999,"REV_AT_EPOCH":9056,"BSTAR":5.1861152e-5,"MEAN_MOTION_DOT":4.8e-6,"MEAN_MOTION_DDOT":0},{"OBJECT_NAME":"COSMOS 1833","OBJECT_ID":"1987-027A","EPOCH":"2026-03-26T06:48:14.882112","MEAN_MOTION":14.13048683,"ECCENTRICITY":0.00233987,"INCLINATION":70.9176,"RA_OF_ASC_NODE":291.1414,"ARG_OF_PERICENTER":190.2449,"MEAN_ANOMALY":169.8199,"EPHEMERIS_TYPE":0,"CLASSIFICATION_TYPE":"U","NORAD_CAT_ID":17589,"ELEMENT_SET_NO":999,"REV_AT_EPOCH":1266,"BSTAR":-0.00012308903,"MEAN_MOTION_DOT":-2.79e-6,"MEAN_MOTION_DDOT":0},{"OBJECT_NAME":"SL-16 R/B","OBJECT_ID":"1987-027B","EPOCH":"2026-03-26T06:42:39.777120","MEAN_MOTION":14.17165803,"ECCENTRICITY":0.0002852,"INCLINATION":71.0012,"RA_OF_ASC_NODE":241.5323,"ARG_OF_PERICENTER":102.5027,"MEAN_ANOMALY":257.6416,"EPHEMERIS_TYPE":0,"CLASSIFICATION_TYPE":"U","NORAD_CAT_ID":17590,"ELEMENT_SET_NO":999,"REV_AT_EPOCH":1769,"BSTAR":-6.2094343e-5,"MEAN_MOTION_DOT":-1.73e-6,"MEAN_MOTION_DDOT":0},{"OBJECT_NAME":"SL-14 R/B","OBJECT_ID":"1987-038B","EPOCH":"2026-03-26T00:04:43.276224","MEAN_MOTION":14.85383147,"ECCENTRICITY":0.00206962,"INCLINATION":82.4978,"RA_OF_ASC_NODE":281.4356,"ARG_OF_PERICENTER":109.3233,"MEAN_ANOMALY":251.0224,"EPHEMERIS_TYPE":0,"CLASSIFICATION_TYPE":"U","NORAD_CAT_ID":17912,"ELEMENT_SET_NO":999,"REV_AT_EPOCH":8165,"BSTAR":4.8596166e-5,"MEAN_MOTION_DOT":4.44e-6,"MEAN_MOTION_DDOT":0},{"OBJECT_NAME":"COSMOS 1844","OBJECT_ID":"1987-041A","EPOCH":"2026-03-26T05:31:39.604800","MEAN_MOTION":14.14554515,"ECCENTRICITY":0.00308757,"INCLINATION":70.9013,"RA_OF_ASC_NODE":359.2883,"ARG_OF_PERICENTER":353.7712,"MEAN_ANOMALY":6.3021,"EPHEMERIS_TYPE":0,"CLASSIFICATION_TYPE":"U","NORAD_CAT_ID":17973,"ELEMENT_SET_NO":999,"REV_AT_EPOCH":592,"BSTAR":0.00018859076,"MEAN_MOTION_DOT":3.15e-6,"MEAN_MOTION_DDOT":0},{"OBJECT_NAME":"SL-14 R/B","OBJECT_ID":"1987-055B","EPOCH":"2026-03-26T02:41:14.270208","MEAN_MOTION":14.85645523,"ECCENTRICITY":0.00196984,"INCLINATION":82.5012,"RA_OF_ASC_NODE":333.5567,"ARG_OF_PERICENTER":322.9634,"MEAN_ANOMALY":37.0221,"EPHEMERIS_TYPE":0,"CLASSIFICATION_TYPE":"U","NORAD_CAT_ID":18153,"ELEMENT_SET_NO":999,"REV_AT_EPOCH":7237,"BSTAR":4.5892627e-5,"MEAN_MOTION_DOT":4.23e-6,"MEAN_MOTION_DDOT":0},{"OBJECT_NAME":"COSMOS 1867","OBJECT_ID":"1987-060A","EPOCH":"2026-03-25T22:17:09.544416","MEAN_MOTION":14.31505397,"ECCENTRICITY":0.0014759,"INCLINATION":65.009,"RA_OF_ASC_NODE":261.226,"ARG_OF_PERICENTER":279.6245,"MEAN_ANOMALY":80.3171,"EPHEMERIS_TYPE":0,"CLASSIFICATION_TYPE":"U","NORAD_CAT_ID":18187,"ELEMENT_SET_NO":999,"REV_AT_EPOCH":2226,"BSTAR":2.9023936e-5,"MEAN_MOTION_DOT":-2.3e-7,"MEAN_MOTION_DDOT":0},{"OBJECT_NAME":"SL-14 R/B","OBJECT_ID":"1988-001B","EPOCH":"2026-03-26T07:27:10.320768","MEAN_MOTION":14.85545719,"ECCENTRICITY":0.00181175,"INCLINATION":82.5162,"RA_OF_ASC_NODE":179.7326,"ARG_OF_PERICENTER":178.6707,"MEAN_ANOMALY":181.4561,"EPHEMERIS_TYPE":0,"CLASSIFICATION_TYPE":"U","NORAD_CAT_ID":18749,"ELEMENT_SET_NO":999,"REV_AT_EPOCH":4449,"BSTAR":5.2827072e-5,"MEAN_MOTION_DOT":4.82e-6,"MEAN_MOTION_DDOT":0},{"OBJECT_NAME":"COSMOS 1933","OBJECT_ID":"1988-020A","EPOCH":"2026-03-25T20:57:51.417792","MEAN_MOTION":15.18132864,"ECCENTRICITY":0.0005085,"INCLINATION":82.5121,"RA_OF_ASC_NODE":234.8954,"ARG_OF_PERICENTER":133.3427,"MEAN_ANOMALY":226.8232,"EPHEMERIS_TYPE":0,"CLASSIFICATION_TYPE":"U","NORAD_CAT_ID":18958,"ELEMENT_SET_NO":999,"REV_AT_EPOCH":5268,"BSTAR":0.0002041,"MEAN_MOTION_DOT":4.195e-5,"MEAN_MOTION_DDOT":0},{"OBJECT_NAME":"SL-3 R/B","OBJECT_ID":"1988-032B","EPOCH":"2026-03-26T06:09:01.346976","MEAN_MOTION":15.20086301,"ECCENTRICITY":0.00260506,"INCLINATION":97.5214,"RA_OF_ASC_NODE":68.4532,"ARG_OF_PERICENTER":172.1257,"MEAN_ANOMALY":188.0392,"EPHEMERIS_TYPE":0,"CLASSIFICATION_TYPE":"U","NORAD_CAT_ID":19046,"ELEMENT_SET_NO":999,"REV_AT_EPOCH":5462,"BSTAR":0.00021254111,"MEAN_MOTION_DOT":4.559e-5,"MEAN_MOTION_DDOT":0},{"OBJECT_NAME":"SL-16 R/B","OBJECT_ID":"1988-039B","EPOCH":"2026-03-26T06:10:19.283232","MEAN_MOTION":14.19618215,"ECCENTRICITY":0.00235505,"INCLINATION":71.0162,"RA_OF_ASC_NODE":33.5138,"ARG_OF_PERICENTER":310.5614,"MEAN_ANOMALY":49.346,"EPHEMERIS_TYPE":0,"CLASSIFICATION_TYPE":"U","NORAD_CAT_ID":19120,"ELEMENT_SET_NO":999,"REV_AT_EPOCH":96073,"BSTAR":7.850833e-5,"MEAN_MOTION_DOT":1.18e-6,"MEAN_MOTION_DDOT":0},{"OBJECT_NAME":"COSMOS 1953","OBJECT_ID":"1988-050A","EPOCH":"2026-03-26T02:54:38.500416","MEAN_MOTION":15.28777394,"ECCENTRICITY":0.00125013,"INCLINATION":82.508,"RA_OF_ASC_NODE":141.7191,"ARG_OF_PERICENTER":71.3179,"MEAN_ANOMALY":288.9416,"EPHEMERIS_TYPE":0,"CLASSIFICATION_TYPE":"U","NORAD_CAT_ID":19210,"ELEMENT_SET_NO":999,"REV_AT_EPOCH":4029,"BSTAR":0.0002107321,"MEAN_MOTION_DOT":5.939e-5,"MEAN_MOTION_DDOT":0}]
