SL-14 R/B               
1 16496U 86006B   26084.94141600  .00000851  00000+0  87827-4 0  9990
2 16496  82.5246 244.4375 0075588 217.9602 141.6275 14.86838959151626
COSMOS 1743             
1 16719U 86034A   26085.20005903  .00042433  00000+0  52563-3 0  9994
2 16719  82.5305  56.4844 0003725 179.1804 180.9460 15.59875785182826
SL-14 R/B               
1 16792U 86046B   26085.30923840  .00000496  00000+0  54268-4 0  9996
2 16792  82.4798  64.4738 0023333 169.2548 190.9172 14.85605849128871
SL-14 R/B               
1 16882U 86055B   26085.10090075  .00000427  00000+0  46407-4 0  9999
2 16882  82.5173 111.2453 0017314 278.6402 136.0123 14.85656608121802
AJISAI (EGS)            
1 16908U 86061A   26085.27697456 -.00000097  00000+0  57260-5 0  9993
2 16908  50.0107  42.3401 0011329 329.7500 181.4098 12.44515641470066
SL-14 R/B               
1 17567U 87024B   26085.06725865  .00000480  00000+0  51861-4 0  9993
2 17567  82.5250  77.3656 0017562 201.8649 158.1821 14.86147057 90564
COSMOS 1833             
1 17589U 87027A   26085.28350558 -.00000279  00000+0 -12309-3 0  9998
2 17589  70.9176 291.1414 0023398 190.2449 169.8199 14.13048683 12664
SL-16 R/B               
1 17590U 87027B   26085.27962705 -.00000173  00000+0 -62094-4 0  9992
2 17590  71.0012 241.5323 0002852 102.5027 257.6416 14.17165803 17699
SL-14 R/B               
1 17912U 87038B   26085.00327866  .00000444  00000+0  48596-4 0  9996
2 17912  82.4978 281.4356 0020696 109.3233 251.0224 14.85383147 81653
COSMOS 1844             
1 17973U 87041A   26085.23031950  .00000315  00000+0  18859-3 0  9993
2 17973  70.9013 359.2883 0030875 353.7712   6.3021 14.14554515  5921
SL-14 R/B               
1 18153U 87055B   26085.11197072  .00000423  00000+0  45893-4 0  9993
2 18153  82.5012 333.5567 0019698 322.9634  37.0221 14.85645523 72379
COSMOS 1867             
1 18187U 87060A   26084.92858269 -.00000023  00000+0  29024-4 0  9991
2 18187  65.0090 261.2260 0014759 279.6245  80.3171 14.31505397 22267
SL-14 R/B               
1 18749U 88001B   26085.31053612  .00000482  00000+0  52827-4 0  9999
2 18749  82.5162 179.7326 0018117 178.6707 181.4561 14.85545719 44490
COSMOS 1933             
1 18958U 88020A   26084.87351178  .00004195  00000+0  20410-3 0  9997
2 18958  82.5121 234.8954 0005085 133.3427 226.8232 15.18132864 52683
SL-3 R/B                
1 19046U 88032B   26085.25626559  .00004559  00000+0  21254-3 0  9991
2 19046  97.5214  68.4532 0026050 172.1257 188.0392 15.20086301 54620
SL-16 R/B               
1 19120U 88039B   26085.25716763  .00000118  00000+0  78508-4 0  9990
2 19120  71.0162  33.5138 0023550 310.5614  49.3460 14.19618215960739
COSMOS 1953             
1 19210U 88050A   26085.12127894  .00005939  00000+0  21073-3 0  9990
2 19210  82.5080 141.7191 0012501  71.3179 288.9416 15.28777394 40295
